{"type":"FeatureCollection","features":[{"type":"Feature","properties":{"k":"rural"},"geometry":{"type":"Polygon","coordinates":[[[98.981805,18.829201],[98.98188,18.829006],[98.982158,18.82913],[98.982389,18.828729],[98.984458,18.829387],[98.984803,18.82842],[98.984832,18.827859],[98.984977,18.827885],[98.984993,18.827438],[98.984799,18.827414],[98.984769,18.827027],[98.985171,18.826998],[98.985186,18.827433],[98.986183,18.827519],[98.986205,18.827392],[98.987048,18.827195],[98.987186,18.828601],[98.98693,18.829596],[98.987015,18.83147],[98.985947,18.831261],[98.985524,18.832911],[98.984418,18.832612],[98.983785,18.834714],[98.983386,18.835303],[98.98208,18.835101],[98.981945,18.833561],[98.982262,18.831855],[98.98187,18.831804],[98.981667,18.832729],[98.980846,18.832561],[98.980825,18.832912],[98.980481,18.832906],[98.98046,18.832535],[98.980111,18.832561],[98.980098,18.832839],[98.980026,18.832747],[98.9798,18.832791],[98.978701,18.832021],[98.977405,18.831462],[98.977607,18.831],[98.978608,18.831215],[98.978904,18.83044],[98.979677,18.830566],[98.979741,18.83023],[98.981414,18.830459],[98.981805,18.829201]],[[98.982114,18.82972],[98.981996,18.830185],[98.985177,18.830909],[98.985295,18.830444],[98.982114,18.82972]]]}},{"type":"Feature","properties":{"k":"forest"},"geometry":{"type":"Polygon","coordinates":[[[98.964508,18.820001],[98.965898,18.819347],[98.96697,18.81912],[98.968035,18.819461],[98.968314,18.820345],[98.968583,18.82066],[98.96818,18.820715],[98.968577,18.821157],[98.966238,18.822078],[98.966417,18.821639],[98.965999,18.821855],[98.965721,18.821595],[98.965261,18.821577],[98.96442,18.820154],[98.964508,18.820001]],[[98.966738,18.821218],[98.966812,18.821301],[98.967,18.821299],[98.96737,18.821093],[98.967381,18.821015],[98.967102,18.820933],[98.967017,18.821137],[98.966738,18.821218]],[[98.964992,18.820784],[98.965281,18.820628],[98.96507,18.820278],[98.964787,18.8204],[98.964992,18.820784]]]}},{"type":"Feature","properties":{"k":"park"},"geometry":{"type":"Polygon","coordinates":[[[98.985384,18.745134],[98.984724,18.745252],[98.984621,18.744811],[98.984612,18.743985],[98.984829,18.743755],[98.98525,18.744073],[98.985599,18.744698],[98.985706,18.745022],[98.985384,18.745134]],[[98.98481,18.743933],[98.985012,18.743911],[98.984827,18.743784],[98.984746,18.74389],[98.98481,18.743933]],[[98.985166,18.744344],[98.985267,18.744245],[98.985196,18.744093],[98.985059,18.744225],[98.985166,18.744344]],[[98.985205,18.744786],[98.985207,18.744954],[98.985499,18.744887],[98.985464,18.744749],[98.985319,18.744839],[98.9853,18.744765],[98.985205,18.744786]]]}},{"type":"Feature","properties":{"k":"rural"},"geometry":{"type":"Polygon","coordinates":[[[98.960461,18.804075],[98.960449,18.803091],[98.961002,18.803079],[98.960794,18.802293],[98.961073,18.802283],[98.961169,18.80209],[98.961491,18.80214],[98.961577,18.802298],[98.96259,18.802359],[98.962698,18.802857],[98.963272,18.802801],[98.963342,18.802933],[98.963594,18.802943],[98.96398,18.802872],[98.964204,18.803189],[98.963233,18.803712],[98.963126,18.803524],[98.962263,18.803451],[98.961368,18.803928],[98.960461,18.804075]],[[98.961144,18.803608],[98.961596,18.803527],[98.961564,18.80337],[98.961113,18.803452],[98.961144,18.803608]]]}},{"type":"Feature","properties":{"k":"rural"},"geometry":{"type":"Polygon","coordinates":[[[98.98703,18.733924],[98.985755,18.733881],[98.985789,18.733293],[98.986455,18.733306],[98.986472,18.73289],[98.986605,18.732785],[98.986597,18.733308],[98.986915,18.733312],[98.987019,18.733418],[98.98716,18.733898],[98.98703,18.733924]],[[98.986633,18.733791],[98.986972,18.733804],[98.986967,18.733444],[98.986626,18.733436],[98.986633,18.733791]]]}},{"type":"Feature","properties":{"k":"forest"},"geometry":{"type":"Polygon","coordinates":[[[98.997356,18.758537],[98.99694,18.758147],[98.997176,18.758002],[98.997254,18.757973],[98.997342,18.75813],[98.997752,18.757925],[98.997855,18.758043],[98.99792,18.758013],[98.998024,18.758289],[98.998346,18.758097],[98.998276,18.758398],[98.998134,18.758493],[98.998227,18.758542],[98.998435,18.758449],[98.998347,18.758682],[98.998253,18.758681],[98.998165,18.758821],[98.998156,18.759066],[98.997852,18.758953],[98.997356,18.758537]]]}},{"type":"Feature","properties":{"k":"forest"},"geometry":{"type":"Polygon","coordinates":[[[98.957967,18.80764],[98.9579,18.807588],[98.958389,18.807349],[98.958298,18.807182],[98.957809,18.807421],[98.957608,18.806975],[98.958574,18.806508],[98.958815,18.80665],[98.958997,18.807051],[98.959378,18.806985],[98.959481,18.806716],[98.95986,18.806629],[98.960172,18.807554],[98.959828,18.807249],[98.959442,18.807345],[98.959447,18.807518],[98.959298,18.807564],[98.959255,18.807361],[98.959084,18.807407],[98.958911,18.807742],[98.959088,18.808056],[98.958671,18.808092],[98.958697,18.80828],[98.958889,18.808239],[98.958944,18.808392],[98.958563,18.808839],[98.958214,18.808183],[98.958048,18.80827],[98.957956,18.808122],[98.95816,18.808021],[98.957967,18.80764]],[[98.958644,18.807371],[98.95895,18.807346],[98.958944,18.807214],[98.958858,18.807143],[98.958606,18.807214],[98.958644,18.807371]],[[98.958478,18.807077],[98.958874,18.806991],[98.958848,18.806884],[98.958451,18.806965],[98.958478,18.807077]]]}},{"type":"Feature","properties":{"k":"rural"},"geometry":{"type":"Polygon","coordinates":[[[99.004546,18.72998],[99.005109,18.73001],[99.005093,18.730564],[99.006295,18.73035],[99.006359,18.7305],[99.007606,18.729835],[99.008242,18.729797],[99.008332,18.731947],[99.007712,18.732009],[99.007769,18.732798],[99.007126,18.732802],[99.006568,18.732954],[99.006032,18.731059],[99.005174,18.731542],[99.004573,18.732802],[99.004326,18.73301],[99.004117,18.733467],[99.003902,18.734631],[99.003478,18.736101],[99.00155,18.735959],[99.001311,18.7365],[99.001255,18.737084],[99.000665,18.737277],[99.000619,18.736858],[99.000402,18.736848],[99.000429,18.736084],[99.000029,18.735878],[98.999588,18.735816],[98.998971,18.735988],[98.998882,18.736096],[98.998892,18.73632],[98.998599,18.736348],[98.998601,18.735904],[98.998919,18.735913],[98.998886,18.735047],[98.997065,18.735443],[98.997242,18.734906],[98.998002,18.734932],[98.998039,18.734836],[98.997921,18.733973],[98.997685,18.733922],[98.997685,18.733648],[98.997492,18.733668],[98.997363,18.733495],[98.997353,18.73312],[98.997831,18.733024],[98.998514,18.733201],[98.998401,18.733736],[99.000197,18.733724],[99.000265,18.733028],[99.000716,18.732792],[99.000997,18.733],[99.001327,18.733079],[99.001518,18.73299],[99.001571,18.73206],[99.002364,18.732073],[99.002338,18.730955],[99.001701,18.730836],[99.001836,18.729554]]]}},{"type":"Feature","properties":{"k":"rural"},"geometry":{"type":"Polygon","coordinates":[[[98.931397,18.768984],[98.931558,18.768273],[98.930292,18.767991],[98.929696,18.768672],[98.929506,18.76902],[98.930296,18.769124],[98.929136,18.768984],[98.930643,18.767423],[98.932845,18.767484],[98.932547,18.768266],[98.932813,18.768487],[98.932858,18.768676],[98.932657,18.769237],[98.931397,18.768984]]]}},{"type":"Feature","properties":{"k":"forest"},"geometry":{"type":"Polygon","coordinates":[[[98.933862,18.759236],[98.934607,18.759898],[98.934909,18.760477],[98.933805,18.759346],[98.933862,18.759236]]]}},{"type":"Feature","properties":{"k":"forest"},"geometry":{"type":"Polygon","coordinates":[[[98.933848,18.767326],[98.934712,18.765332],[98.936152,18.765718],[98.9355,18.767344],[98.933848,18.767326]],[[98.935468,18.767318],[98.935503,18.767031],[98.934621,18.766851],[98.934232,18.766651],[98.934194,18.767298],[98.935468,18.767318]],[[98.935822,18.766285],[98.936013,18.765812],[98.935248,18.765551],[98.935077,18.766023],[98.935822,18.766285]]]}},{"type":"Feature","properties":{"k":"rural"},"geometry":{"type":"Polygon","coordinates":[[[98.937296,18.759534],[98.936885,18.759713],[98.9365,18.75963],[98.936317,18.759489],[98.936225,18.759081],[98.936455,18.758588],[98.936392,18.75814],[98.937568,18.757651],[98.938169,18.758962],[98.938067,18.759108],[98.937296,18.759534]],[[98.937298,18.759435],[98.938023,18.759057],[98.938087,18.758914],[98.937808,18.7583],[98.937121,18.757891],[98.936467,18.758145],[98.936508,18.758598],[98.936335,18.758949],[98.936297,18.759254],[98.936369,18.759438],[98.936698,18.75963],[98.937017,18.759622],[98.937298,18.759435]]]}},{"type":"Feature","properties":{"k":"forest"},"geometry":{"type":"Polygon","coordinates":[[[98.934234,18.757518],[98.934033,18.75791],[98.933852,18.757941],[98.933746,18.758159],[98.933101,18.758007],[98.932373,18.758099],[98.932188,18.757815],[98.931217,18.758414],[98.931013,18.758262],[98.932105,18.757084],[98.932655,18.756714],[98.932636,18.75619],[98.932233,18.755643],[98.931623,18.756294],[98.931258,18.75655],[98.930995,18.756633],[98.930791,18.75655],[98.930763,18.756301],[98.930444,18.755995],[98.930272,18.756115],[98.930199,18.756357],[98.929978,18.756088],[98.929908,18.755716],[98.930009,18.755404],[98.930455,18.755102],[98.930483,18.754889],[98.93077,18.75447],[98.93076,18.754241],[98.932009,18.754095],[98.932163,18.754414],[98.932609,18.754517],[98.932598,18.753976],[98.932882,18.754082],[98.933082,18.754318],[98.932745,18.754676],[98.932865,18.754796],[98.933471,18.754537],[98.933358,18.754095],[98.93397,18.754338],[98.934073,18.75466],[98.934274,18.754857],[98.934694,18.756031],[98.934564,18.756833],[98.934234,18.757518]],[[98.934098,18.756115],[98.93404,18.755604],[98.93354,18.755591],[98.93362,18.755895],[98.934098,18.756115]]]}},{"type":"Feature","properties":{"k":"forest"},"geometry":{"type":"Polygon","coordinates":[[[98.934999,18.764347],[98.935725,18.76289],[98.935074,18.761955],[98.935087,18.761716],[98.935188,18.761663],[98.935409,18.761894],[98.935483,18.761594],[98.935833,18.762618],[98.935857,18.762986],[98.935629,18.763631],[98.934706,18.765233],[98.934629,18.765205],[98.934999,18.764347]]]}},{"type":"Feature","properties":{"k":"rural"},"geometry":{"type":"Polygon","coordinates":[[[98.935767,18.758306],[98.935177,18.757197],[98.935432,18.757124],[98.935527,18.756585],[98.936803,18.756193],[98.937173,18.756915],[98.936725,18.757085],[98.937061,18.757447],[98.937184,18.757715],[98.935767,18.758306]],[[98.935687,18.757499],[98.935912,18.75759],[98.936304,18.757982],[98.936873,18.757707],[98.93639,18.756976],[98.935472,18.756986],[98.935499,18.757276],[98.935687,18.757499]]]}},{"type":"Feature","properties":{"k":"rural"},"geometry":{"type":"Polygon","coordinates":[[[98.93999,18.758349],[98.939552,18.757486],[98.940395,18.757168],[98.940281,18.756888],[98.940952,18.756661],[98.941242,18.756869],[98.941773,18.75696],[98.941881,18.75734],[98.941694,18.757627],[98.940701,18.757967],[98.93999,18.758349]],[[98.939782,18.757474],[98.939734,18.757576],[98.939879,18.757921],[98.940131,18.758231],[98.940657,18.75786],[98.941145,18.757789],[98.94167,18.757586],[98.941847,18.757185],[98.941756,18.757078],[98.940823,18.7569],[98.940179,18.757373],[98.939782,18.757474]]]}},{"type":"Feature","properties":{"k":"rural"},"geometry":{"type":"Polygon","coordinates":[[[98.937961,18.758282],[98.937871,18.758022],[98.938265,18.757857],[98.938089,18.757453],[98.939227,18.75699],[98.939907,18.758431],[98.938404,18.758969],[98.93825,18.758878],[98.937961,18.758282]],[[98.938226,18.758198],[98.938156,18.75831],[98.938454,18.758817],[98.939814,18.75841],[98.939436,18.75752],[98.939257,18.757416],[98.938811,18.757469],[98.938226,18.758198]]]}},{"type":"Feature","properties":{"k":"rural"},"geometry":{"type":"Polygon","coordinates":[[[98.936191,18.758888],[98.935517,18.758494],[98.936319,18.758171],[98.936361,18.75861],[98.936191,18.758888]]]}},{"type":"Feature","properties":{"k":"rural"},"geometry":{"type":"Polygon","coordinates":[[[98.928721,18.768916],[98.928454,18.768842],[98.928427,18.768741],[98.928996,18.767633],[98.929077,18.767316],[98.929833,18.766506],[98.930251,18.767202],[98.930587,18.767372],[98.929081,18.768986],[98.928721,18.768916]],[[98.92906,18.768817],[98.929146,18.768642],[98.92909,18.768438],[98.928733,18.768332],[98.928572,18.768741],[98.92906,18.768817]],[[98.929342,18.768289],[98.929624,18.768207],[98.92979,18.768027],[98.929613,18.767773],[98.929063,18.767654],[98.928873,18.768187],[98.929082,18.768235],[98.929251,18.768096],[98.929347,18.768154],[98.929342,18.768289]],[[98.930141,18.767687],[98.930396,18.767458],[98.930227,18.767339],[98.929801,18.766724],[98.929718,18.766752],[98.929178,18.767364],[98.930141,18.767687]]]}},{"type":"Feature","properties":{"k":"rural"},"geometry":{"type":"Polygon","coordinates":[[[98.941299,18.757917],[98.94182,18.757586],[98.941943,18.757203],[98.941875,18.756968],[98.941962,18.757005],[98.941997,18.75735],[98.941755,18.757739],[98.940066,18.758536],[98.940039,18.75846],[98.941299,18.757917]]]}},{"type":"Feature","properties":{"k":"rural"},"geometry":{"type":"Polygon","coordinates":[[[98.930666,18.760654],[98.930664,18.760552],[98.931272,18.760322],[98.93147,18.759984],[98.931581,18.760018],[98.931126,18.760547],[98.930666,18.760654]]]}},{"type":"Feature","properties":{"k":"rural"},"geometry":{"type":"Polygon","coordinates":[[[98.932598,18.765729],[98.932604,18.765668],[98.933304,18.765749],[98.934264,18.765988],[98.934328,18.765805],[98.934417,18.765833],[98.934198,18.766319],[98.933313,18.766233],[98.933317,18.766003],[98.932936,18.765795],[98.932598,18.765729]]]}},{"type":"Feature","properties":{"k":"forest"},"geometry":{"type":"Polygon","coordinates":[[[98.934198,18.766319],[98.93377,18.767331],[98.933465,18.767316],[98.933408,18.76659],[98.93328,18.766536],[98.93258,18.766709],[98.932274,18.766963],[98.932089,18.767311],[98.93064,18.767291],[98.930316,18.767133],[98.929983,18.766658],[98.930069,18.76659],[98.930546,18.767103],[98.930756,18.767011],[98.93082,18.766249],[98.930675,18.766155],[98.930466,18.766173],[98.929967,18.766483],[98.929777,18.766041],[98.929699,18.76548],[98.92975,18.765424],[98.929908,18.765604],[98.930761,18.765409],[98.931182,18.765541],[98.931437,18.765115],[98.931032,18.764769],[98.931576,18.76491],[98.932692,18.764883],[98.932692,18.765391],[98.932185,18.765315],[98.931989,18.765426],[98.932024,18.765541],[98.932936,18.765795],[98.933317,18.766003],[98.933313,18.766233],[98.934198,18.766319]]]}},{"type":"Feature","properties":{"k":"rural"},"geometry":{"type":"Polygon","coordinates":[[[99.006987,18.834043],[99.00817,18.832574],[99.00843,18.832497],[99.008958,18.832533],[99.008899,18.832238],[99.009323,18.831286],[99.009275,18.831071],[99.008934,18.830667],[99.008931,18.830093],[99.009017,18.829999],[99.010023,18.830357],[99.012298,18.830672],[99.012661,18.835279],[99.012397,18.835275],[99.012391,18.835612],[99.011525,18.835485],[99.011179,18.835539],[99.01027,18.8361],[99.009478,18.835643],[99.00865,18.836051],[99.008663,18.835775],[99.008566,18.835671],[99.00784,18.835564],[99.007389,18.835259],[99.006608,18.834455],[99.006987,18.834043]],[[99.01134,18.834064],[99.011764,18.833422],[99.01142,18.832822],[99.01071,18.832802],[99.010618,18.832584],[99.010597,18.831594],[99.010254,18.831544],[99.010004,18.831604],[99.009883,18.832277],[99.009309,18.832487],[99.009296,18.832602],[99.009556,18.832863],[99.010895,18.833],[99.011107,18.833526],[99.010377,18.833853],[99.010302,18.83417],[99.01057,18.834409],[99.01134,18.834064]]]}},{"type":"Feature","properties":{"k":"rural"},"geometry":{"type":"Polygon","coordinates":[[[98.943982,18.754044],[98.944108,18.754324],[98.94443,18.754505],[98.944642,18.755165],[98.944388,18.755229],[98.944179,18.755428],[98.944276,18.755515],[98.94452,18.755511],[98.944782,18.755798],[98.945485,18.755723],[98.945996,18.756731],[98.946419,18.75661],[98.946605,18.756977],[98.946351,18.757212],[98.945612,18.757462],[98.94562,18.757188],[98.945843,18.757134],[98.945795,18.756979],[98.945591,18.757045],[98.945478,18.756687],[98.94444,18.757038],[98.944105,18.757231],[98.942823,18.754021],[98.943365,18.753919],[98.943982,18.754044]],[[98.943925,18.75518],[98.944081,18.755096],[98.943973,18.754918],[98.943818,18.755002],[98.943925,18.75518]],[[98.943565,18.75516],[98.94372,18.75499],[98.943657,18.754892],[98.943477,18.75502],[98.943565,18.75516]],[[98.94351,18.755522],[98.943901,18.755362],[98.943821,18.755138],[98.94341,18.755301],[98.94351,18.755522]]]}},{"type":"Feature","properties":{"k":"rural"},"geometry":{"type":"Polygon","coordinates":[[[98.9442,18.757289],[98.944452,18.757122],[98.944489,18.757188],[98.945453,18.756835],[98.945541,18.757454],[98.944851,18.757291],[98.9442,18.757289]],[[98.944876,18.757246],[98.945151,18.757265],[98.945382,18.757095],[98.945131,18.757028],[98.944888,18.757138],[98.944876,18.757246]]]}},{"type":"Feature","properties":{"k":"park"},"geometry":{"type":"Polygon","coordinates":[[[98.96045,18.776189],[98.957596,18.77622],[98.95735,18.776133],[98.957012,18.775859],[98.956878,18.774833],[98.957022,18.772649],[98.957677,18.771618],[98.959147,18.771511],[98.95949,18.77109],[98.959501,18.771389],[98.959694,18.771349],[98.959694,18.771186],[98.959941,18.771135],[98.959935,18.771024],[98.959587,18.770927],[98.959533,18.77046],[98.959463,18.770435],[98.959453,18.769769],[98.959554,18.769744],[98.959522,18.769566],[98.959447,18.769566],[98.959367,18.768992],[98.959184,18.768946],[98.95919,18.768687],[98.959249,18.768616],[98.960761,18.768499],[98.96089,18.769109],[98.960879,18.772217],[98.959292,18.772431],[98.959372,18.772837],[98.959174,18.773705],[98.958911,18.773858],[98.959141,18.774259],[98.959356,18.773959],[98.959479,18.774361],[98.959603,18.77433],[98.959984,18.774985],[98.960745,18.774869],[98.960756,18.775087],[98.96008,18.775244],[98.960037,18.775437],[98.960134,18.775559],[98.960745,18.77591],[98.96045,18.776189]],[[98.959453,18.769091],[98.959762,18.769997],[98.960317,18.769692],[98.960751,18.769302],[98.960619,18.768773],[98.960183,18.768817],[98.959453,18.769091]]]}},{"type":"Feature","properties":{"k":"forest"},"geometry":{"type":"Polygon","coordinates":[[[98.956615,18.776524],[98.95655,18.776286],[98.956339,18.776346],[98.956086,18.775658],[98.956636,18.775483],[98.956663,18.775595],[98.95687,18.775539],[98.956845,18.776265],[98.956789,18.776471],[98.956615,18.776524]],[[98.956604,18.775595],[98.95622,18.775746],[98.956379,18.776133],[98.95676,18.775996],[98.956604,18.775595]]]}},{"type":"Feature","properties":{"k":"park"},"geometry":{"type":"Polygon","coordinates":[[[98.953994,18.77419],[98.954072,18.773985],[98.955014,18.773637],[98.955153,18.773685],[98.955413,18.774244],[98.954973,18.774516],[98.955099,18.774879],[98.95541,18.774777],[98.955459,18.775082],[98.955276,18.775155],[98.955368,18.775354],[98.955569,18.775308],[98.955697,18.775541],[98.95504,18.775729],[98.954898,18.775293],[98.95443,18.775387],[98.954126,18.774635],[98.954504,18.774338],[98.954423,18.774107],[98.953994,18.77419]]]}},{"type":"Feature","properties":{"k":"park"},"geometry":{"type":"Polygon","coordinates":[[[98.976534,18.784926],[98.976238,18.784932],[98.976227,18.784793],[98.976529,18.784761],[98.976534,18.784926]]]}},{"type":"Feature","properties":{"k":"park"},"geometry":{"type":"Polygon","coordinates":[[[98.923778,18.752363],[98.924076,18.752005],[98.92414,18.752277],[98.924275,18.752367],[98.924157,18.752443],[98.923778,18.752363]],[[98.924012,18.752152],[98.923916,18.752238],[98.923997,18.752337],[98.924108,18.752269],[98.924012,18.752152]]]}},{"type":"Feature","properties":{"k":"park"},"geometry":{"type":"Polygon","coordinates":[[[98.923865,18.750541],[98.924141,18.750193],[98.924654,18.75047],[98.924123,18.750891],[98.923865,18.750541]],[[98.924109,18.750718],[98.924369,18.750542],[98.924286,18.750351],[98.924025,18.750364],[98.923963,18.750587],[98.924109,18.750718]]]}},{"type":"Feature","properties":{"k":"forest"},"geometry":{"type":"Polygon","coordinates":[[[98.949778,18.850022],[98.950116,18.84989],[98.950255,18.849448],[98.950352,18.849387],[98.950593,18.849499],[98.950754,18.849443],[98.950915,18.849712],[98.950996,18.849717],[98.950969,18.849966],[98.950872,18.850062],[98.951731,18.850088],[98.951741,18.849991],[98.952388,18.849752],[98.952728,18.847824],[98.953728,18.846529],[98.953625,18.846438],[98.953187,18.846528],[98.951662,18.846847],[98.950299,18.847248],[98.946988,18.84792],[98.946848,18.846267],[98.946715,18.846271],[98.946716,18.846043],[98.947119,18.845712],[98.952886,18.8457],[98.953863,18.845563],[98.954628,18.845609],[98.95503,18.845393],[98.955042,18.845243],[98.954528,18.845116],[98.955032,18.844984],[98.955363,18.84505],[98.955487,18.845294],[98.955637,18.845267],[98.955565,18.844996],[98.955967,18.844381],[98.956613,18.84433],[98.956399,18.843471],[98.956431,18.842959],[98.956565,18.842695],[98.956222,18.842014],[98.955476,18.842344],[98.955139,18.841628],[98.954919,18.841567],[98.954748,18.840963],[98.954576,18.840912],[98.954372,18.841131],[98.954678,18.84242],[98.954474,18.842324],[98.954222,18.842369],[98.954034,18.842705],[98.954126,18.843004],[98.953922,18.843197],[98.953713,18.843248],[98.953578,18.843004],[98.953611,18.842319],[98.953385,18.841577],[98.953294,18.84143],[98.95301,18.841379],[98.952774,18.841623],[98.952404,18.842314],[98.952323,18.84306],[98.952205,18.84306],[98.952087,18.843222],[98.951722,18.843943],[98.951715,18.844158],[98.951511,18.844305],[98.951339,18.844305],[98.951183,18.844102],[98.951232,18.84399],[98.951355,18.844041],[98.951473,18.843721],[98.951387,18.84334],[98.951457,18.843026],[98.951339,18.842833],[98.951414,18.842655],[98.951393,18.842091],[98.951725,18.841706],[98.951715,18.841025],[98.950829,18.840868],[98.950373,18.841117],[98.950084,18.841035],[98.950609,18.840614],[98.95077,18.840426],[98.950754,18.840304],[98.950969,18.840319],[98.950985,18.840137],[98.951119,18.840071],[98.951344,18.839543],[98.951811,18.839061],[98.951961,18.838913],[98.952288,18.838802],[98.952337,18.838715],[98.951934,18.837934],[98.95202,18.837862],[98.95238,18.838289],[98.952744,18.838274],[98.952739,18.837756],[98.952873,18.837583],[98.953286,18.837355],[98.953127,18.836887],[98.953317,18.83622],[98.95438,18.835923],[98.954638,18.835537],[98.954649,18.835314],[98.954463,18.834911],[98.953908,18.835025],[98.953726,18.834319],[98.953619,18.833415],[98.95396,18.832525],[98.954799,18.83176],[98.955232,18.831567],[98.955732,18.831546],[98.956065,18.831252],[98.955292,18.831181],[98.954035,18.830496],[98.954056,18.83006],[98.953844,18.830015],[98.95349,18.830237],[98.953372,18.830091],[98.953019,18.830272],[98.952771,18.830269],[98.952626,18.829622],[98.951478,18.829733],[98.950791,18.8295],[98.950845,18.829084],[98.951328,18.82885],[98.952497,18.828647],[98.952712,18.828248],[98.952913,18.827561],[98.952579,18.82752],[98.952118,18.82719],[98.952439,18.826802],[98.953,18.826713],[98.953613,18.827105],[98.953994,18.827222],[98.95386,18.826841],[98.9539,18.826735],[98.954166,18.826615],[98.95412,18.825948],[98.953161,18.8259],[98.953227,18.825562],[98.953104,18.82529],[98.952086,18.824968],[98.951889,18.825031],[98.951244,18.824914],[98.951022,18.824572],[98.952398,18.82495],[98.95249,18.824625],[98.952372,18.824526],[98.952404,18.824226],[98.953045,18.824369],[98.95309,18.82397],[98.951382,18.82381],[98.951071,18.824193],[98.950003,18.824249],[98.949928,18.824153],[98.949976,18.823785],[98.949705,18.823457],[98.948614,18.822963],[98.948565,18.822616],[98.948644,18.822245],[98.948271,18.821469],[98.948051,18.821529],[98.948215,18.821924],[98.948074,18.822531],[98.947799,18.822442],[98.947676,18.821804],[98.947877,18.819785],[98.947821,18.818269],[98.948612,18.81745],[98.948992,18.816762],[98.949268,18.81574],[98.94886,18.815445],[98.94974,18.815222],[98.949933,18.81509],[98.949955,18.814684],[98.949643,18.814541],[98.948903,18.81448],[98.948334,18.814541],[98.947906,18.813942],[98.947315,18.813729],[98.947101,18.813272],[98.947508,18.813069],[98.947594,18.812765],[98.947444,18.812541],[98.94753,18.811983],[98.947873,18.811881],[98.949085,18.81178],[98.948925,18.811434],[98.948528,18.811455],[98.947962,18.811168],[98.947921,18.810756],[98.947628,18.810777],[98.947494,18.810581],[98.947268,18.810541],[98.947179,18.809006],[98.948109,18.808691],[98.948287,18.808359],[98.948005,18.807264],[98.947388,18.807249],[98.947026,18.806795],[98.946444,18.806942],[98.946245,18.806673],[98.946742,18.805807],[98.946656,18.805553],[98.946194,18.805462],[98.946227,18.805307],[98.946401,18.805309],[98.946433,18.804977],[98.946264,18.804938],[98.946363,18.804596],[98.946862,18.804713],[98.946894,18.804608],[98.94675,18.804309],[98.947155,18.804057],[98.947694,18.803263],[98.947812,18.802902],[98.948024,18.802696],[98.947546,18.802506],[98.947624,18.802214],[98.947951,18.802255],[98.948026,18.802059],[98.948158,18.802024],[98.947903,18.801737],[98.947552,18.801838],[98.94716,18.801628],[98.947289,18.801221],[98.947662,18.801219],[98.947635,18.801026],[98.94819,18.800807],[98.948174,18.80065],[98.948075,18.800602],[98.94786,18.799896],[98.947654,18.799637],[98.947409,18.799657],[98.947125,18.799865],[98.947074,18.79965],[98.946744,18.799474],[98.946278,18.798568],[98.946235,18.797999],[98.946645,18.797791],[98.94697,18.797753],[98.946978,18.798088],[98.948211,18.796694],[98.948584,18.795587],[98.948504,18.794586],[98.948312,18.793781],[98.947896,18.793761],[98.94646,18.79414],[98.946422,18.793931],[98.947636,18.792966],[98.947639,18.792418],[98.947895,18.792052],[98.948195,18.791885],[98.948209,18.791781],[98.948013,18.791562],[98.948064,18.791476],[98.948399,18.791425],[98.948439,18.791258],[98.948037,18.790902],[98.948002,18.790539],[98.845781,18.788442]],[[98.941446,18.797216],[98.94191,18.797139],[98.942467,18.796553],[98.942349,18.796319],[98.941751,18.796326],[98.941349,18.796546],[98.941446,18.797216]],[[98.942438,18.817078],[98.943049,18.81714],[98.943009,18.816695],[98.94315,18.81637],[98.943054,18.816155],[98.942418,18.816007],[98.942438,18.817078]],[[98.93425,18.838904],[98.935361,18.839229],[98.936141,18.839217],[98.937305,18.839479],[98.937331,18.839141],[98.936405,18.838941],[98.934505,18.838767],[98.93425,18.838904]],[[98.93544,18.83441],[98.935638,18.835049],[98.936604,18.835387],[98.936736,18.835074],[98.936247,18.834698],[98.93544,18.83441]],[[98.931528,18.824346],[98.932362,18.824628],[98.932792,18.824562],[98.933748,18.82496],[98.934178,18.825517],[98.934617,18.825226],[98.934389,18.824811],[98.933923,18.824711],[98.933239,18.824304],[98.931826,18.823997],[98.931528,18.824346]],[[98.939442,18.819878],[98.939986,18.820102],[98.940153,18.819712],[98.94068,18.819695],[98.940109,18.819379],[98.939442,18.819878]],[[98.940924,18.814963],[98.940884,18.815116],[98.940628,18.815124],[98.940628,18.815277],[98.940965,18.81543],[98.9414,18.815358],[98.941261,18.814882],[98.940924,18.814963]],[[98.93919,18.822532],[98.939949,18.822493],[98.941826,18.822192],[98.941815,18.821921],[98.940472,18.82195],[98.93999,18.822105],[98.93919,18.822532]],[[98.938101,18.827555],[98.938778,18.827483],[98.939171,18.827328],[98.939575,18.827029],[98.939782,18.826698],[98.93952,18.826388],[98.939749,18.826192],[98.939269,18.825727],[98.938843,18.82552],[98.938581,18.825644],[98.93904,18.825892],[98.938887,18.826398],[98.939116,18.82675],[98.938931,18.826967],[98.938418,18.826987],[98.938036,18.827194],[98.938101,18.827555]],[[98.934521,18.828475],[98.934991,18.829208],[98.9363,18.829012],[98.936704,18.828309],[98.937272,18.828031],[98.937403,18.827607],[98.937228,18.8274],[98.936551,18.827855],[98.935307,18.828206],[98.934903,18.827803],[98.934707,18.827163],[98.934074,18.827225],[98.933987,18.8277],[98.934325,18.828309],[98.934521,18.828475]],[[98.923154,18.833259],[98.923711,18.833034],[98.923738,18.832611],[98.922917,18.832689],[98.922862,18.833052],[98.923154,18.833259]],[[98.923209,18.834373],[98.923528,18.834348],[98.923401,18.833743],[98.923127,18.833708],[98.923209,18.834373]],[[98.915232,18.829709],[98.915761,18.82995],[98.915615,18.830443],[98.916163,18.830616],[98.916537,18.830547],[98.91661,18.830011],[98.916254,18.829821],[98.916254,18.829294],[98.915798,18.828758],[98.915305,18.82881],[98.915113,18.829268],[98.915232,18.829709]],[[98.932432,18.792878],[98.932625,18.792847],[98.932687,18.792593],[98.932607,18.792435],[98.933125,18.791744],[98.933147,18.791552],[98.933325,18.79141],[98.933284,18.79136],[98.933137,18.791412],[98.932853,18.791346],[98.932624,18.791558],[98.932955,18.791514],[98.933033,18.79165],[98.932447,18.792424],[98.932432,18.792878]],[[98.945366,18.793177],[98.945138,18.793272],[98.945025,18.793464],[98.944949,18.793972],[98.944738,18.79418],[98.944612,18.794678],[98.945386,18.794768],[98.946232,18.794267],[98.946149,18.793929],[98.945993,18.793898],[98.945953,18.793802],[98.946653,18.793312],[98.946894,18.792652],[98.946626,18.791857],[98.946465,18.791715],[98.946256,18.791904],[98.945874,18.791918],[98.945502,18.791691],[98.944717,18.791871],[98.944623,18.792065],[98.944644,18.792283],[98.944907,18.792743],[98.944775,18.792854],[98.944903,18.792947],[98.945113,18.792762],[98.945371,18.79279],[98.945521,18.792992],[98.945366,18.793177]],[[98.945135,18.816578],[98.945222,18.816389],[98.94522,18.815977],[98.945475,18.815769],[98.946047,18.815723],[98.945963,18.815053],[98.946326,18.814792],[98.946277,18.813815],[98.94613,18.813495],[98.945645,18.81329],[98.945638,18.8129],[98.946119,18.812893],[98.946363,18.812634],[98.946302,18.811681],[98.9453,18.811625],[98.944398,18.811809],[98.944987,18.812367],[98.944733,18.812704],[98.944728,18.812874],[98.945165,18.812869],[98.945298,18.813504],[98.944987,18.813766],[98.944599,18.813753],[98.944166,18.813202],[98.943898,18.81331],[98.944085,18.813769],[98.944164,18.8143],[98.944728,18.814308],[98.944972,18.81459],[98.944888,18.815515],[98.944543,18.815881],[98.944324,18.815893],[98.9442,18.816112],[98.94439,18.816393],[98.945135,18.816578]],[[98.939835,18.838725],[98.939363,18.838669],[98.939261,18.838811],[98.939566,18.839517],[98.939738,18.83973],[98.940114,18.839893],[98.940467,18.840839],[98.940779,18.840999],[98.941046,18.84152],[98.94124,18.841652],[98.941422,18.841619],[98.941551,18.841497],[98.9408,18.840179],[98.940511,18.840086],[98.93991,18.839141],[98.939835,18.838725]],[[98.927732,18.831089],[98.927593,18.831312],[98.927378,18.831294],[98.927228,18.831447],[98.927406,18.832269],[98.928365,18.831721],[98.928504,18.831325],[98.928376,18.831099],[98.927732,18.831089]],[[98.950312,18.827963],[98.950363,18.82806],[98.950561,18.828055],[98.950736,18.827805],[98.950556,18.827559],[98.950379,18.827711],[98.950312,18.827963]],[[98.92961,18.830246],[98.929124,18.829955],[98.929481,18.83116],[98.929846,18.831698],[98.929717,18.831812],[98.929213,18.831911],[98.929181,18.832358],[98.929492,18.832439],[98.928827,18.832521],[98.928687,18.833315],[98.92858,18.833455],[98.928172,18.833384],[98.928129,18.833617],[98.928333,18.833752],[98.928279,18.834006],[98.927958,18.833851],[98.927592,18.834064],[98.928076,18.83442],[98.928945,18.83442],[98.929395,18.834276],[98.929986,18.833435],[98.930855,18.833262],[98.930747,18.83299],[98.930876,18.832635],[98.931327,18.832297],[98.931562,18.832239],[98.931672,18.83257],[98.931416,18.832625],[98.931271,18.833011],[98.931856,18.832919],[98.932164,18.832399],[98.932292,18.832483],[98.932292,18.832947],[98.932678,18.83299],[98.933269,18.832622],[98.933172,18.832155],[98.932721,18.8318],[98.931959,18.831599],[98.930887,18.830733],[98.92961,18.830246]],[[98.931012,18.837612],[98.930921,18.838268],[98.930974,18.83876],[98.930576,18.839253],[98.930627,18.839356],[98.93116,18.839095],[98.932508,18.839065],[98.932478,18.838673],[98.932032,18.837981],[98.931421,18.837672],[98.931012,18.837612]],[[98.946677,18.841118],[98.947063,18.84054],[98.947063,18.840359],[98.946967,18.840276],[98.946653,18.840172],[98.945344,18.840151],[98.945331,18.840314],[98.945518,18.840512],[98.945331,18.840882],[98.945384,18.841065],[98.946109,18.841395],[98.946677,18.841118]],[[98.94425,18.802595],[98.944483,18.802356],[98.94499,18.802298],[98.945178,18.80213],[98.945017,18.801516],[98.944121,18.80099],[98.943676,18.801795],[98.94425,18.802595]],[[98.94503,18.805225],[98.945347,18.805215],[98.945221,18.805751],[98.945016,18.805982],[98.94462,18.806208],[98.944513,18.806878],[98.94499,18.806982],[98.945108,18.806398],[98.945921,18.806073],[98.946092,18.804083],[98.946345,18.804068],[98.94635,18.803783],[98.945937,18.803786],[98.945867,18.803316],[98.944553,18.802796],[98.943625,18.803286],[98.943571,18.80373],[98.943928,18.803831],[98.944741,18.804355],[98.944794,18.804568],[98.944692,18.805111],[98.94503,18.805225]],[[98.943346,18.800631],[98.94321,18.800315],[98.94271,18.800207],[98.942563,18.800274],[98.942721,18.800736],[98.942695,18.801104],[98.942838,18.8013],[98.943095,18.801242],[98.943237,18.801065],[98.943339,18.800925],[98.943346,18.800631]],[[98.9343,18.799541],[98.9346,18.798769],[98.934991,18.798703],[98.934931,18.798613],[98.934063,18.798637],[98.93341,18.798914],[98.933738,18.799631],[98.9343,18.799541]],[[98.899216,18.804646],[98.900317,18.805505],[98.901405,18.805519],[98.901471,18.804683],[98.900994,18.804705],[98.900712,18.804504],[98.899902,18.804479],[98.899799,18.804314],[98.900245,18.803666],[98.900788,18.803633],[98.90081,18.803235],[98.900254,18.802295],[98.899819,18.802434]],[[98.921534,18.805321],[98.922492,18.805913],[98.922862,18.805794],[98.923406,18.805202],[98.923481,18.804819],[98.923283,18.804517],[98.922705,18.804893],[98.922344,18.804447],[98.921926,18.804267],[98.921563,18.803928],[98.921108,18.803982],[98.920725,18.804519],[98.920972,18.805126],[98.921534,18.805321]],[[98.91824,18.801602],[98.918265,18.80173],[98.918915,18.802106],[98.918566,18.803315],[98.918383,18.803415],[98.918297,18.803354],[98.917905,18.803384],[98.917895,18.803628],[98.918023,18.803918],[98.918265,18.803914],[98.918659,18.803706],[98.91986,18.803671],[98.91972,18.804347],[98.918787,18.804298],[98.91878,18.804422],[98.919767,18.804512],[98.920288,18.802649],[98.920087,18.802177],[98.919238,18.801471],[98.918543,18.80126],[98.918267,18.801438],[98.91824,18.801602]],[[98.903074,18.802739],[98.904038,18.802391],[98.904076,18.802133],[98.903821,18.801945],[98.902934,18.802203],[98.903074,18.802739]],[[98.934445,18.796302],[98.934647,18.796331],[98.935007,18.795889],[98.934676,18.795342],[98.9345,18.795356],[98.934358,18.795526],[98.934055,18.795581],[98.933897,18.795501],[98.933685,18.795167],[98.933429,18.795009],[98.933236,18.794567],[98.933105,18.794739],[98.932835,18.794801],[98.933239,18.79512],[98.93362,18.795721],[98.934325,18.796078],[98.934445,18.796302]],[[98.913988,18.806529],[98.91447,18.80642],[98.914979,18.806462],[98.915076,18.805974],[98.914944,18.805498],[98.914623,18.805366],[98.91387,18.805472],[98.913765,18.805908],[98.913988,18.806529]],[[98.912412,18.80929],[98.912892,18.809219],[98.913007,18.809321],[98.913402,18.80925],[98.913753,18.808912],[98.913858,18.808607],[98.914048,18.808478],[98.914646,18.808298],[98.915523,18.80827],[98.915529,18.807785],[98.915727,18.807747],[98.91577,18.808491],[98.915692,18.808719],[98.915936,18.809026],[98.916441,18.809047],[98.916505,18.808651],[98.916285,18.808442],[98.91621,18.808127],[98.916277,18.807729],[98.916709,18.807571],[98.916856,18.806927],[98.91724,18.806812],[98.918592,18.807028],[98.918723,18.806279],[98.917948,18.806287],[98.917066,18.805985],[98.916478,18.807206],[98.916242,18.807191],[98.916167,18.806939],[98.915869,18.806873],[98.914955,18.807061],[98.914813,18.8073],[98.915059,18.807384],[98.915893,18.8073],[98.915877,18.807546],[98.915116,18.807612],[98.914745,18.807922],[98.914244,18.808013],[98.913573,18.808338],[98.913182,18.808793],[98.912374,18.808894],[98.912412,18.80929]]]}},{"type":"Feature","properties":{"k":"park"},"geometry":{"type":"Polygon","coordinates":[[[99.01029,18.752639],[99.010063,18.754191],[99.008727,18.753972],[99.008985,18.753236],[99.009981,18.752532],[99.01029,18.752639]]]}},{"type":"Feature","properties":{"k":"rural"},"geometry":{"type":"Polygon","coordinates":[[[99.010063,18.754191],[99.01029,18.752639],[99.011001,18.753097],[99.011428,18.753023],[99.011476,18.75257],[99.011583,18.752509],[99.011774,18.752624],[99.011787,18.753014],[99.012066,18.752997],[99.01205,18.753327],[99.011889,18.753637],[99.012072,18.753895],[99.011483,18.754229],[99.011051,18.75408],[99.010768,18.754317],[99.010063,18.754191]]]}},{"type":"Feature","properties":{"k":"forest"},"geometry":{"type":"Polygon","coordinates":[[[98.915132,18.746602],[98.916872,18.746452],[98.916776,18.746734],[98.916878,18.74683],[98.91706,18.746899],[98.917417,18.746797],[98.917471,18.746845],[98.917074,18.747112],[98.916894,18.747468],[98.916594,18.747699],[98.916476,18.748065],[98.917245,18.74856],[98.91765,18.748519],[98.91813,18.748291],[98.918208,18.748435],[98.917666,18.748781],[98.917779,18.749075],[98.917712,18.749116],[98.917253,18.748885],[98.916744,18.748888],[98.915995,18.749423],[98.915813,18.749517],[98.915663,18.749456],[98.915454,18.749576],[98.915153,18.749919],[98.915537,18.750152],[98.915413,18.750417],[98.915829,18.75063],[98.915931,18.750465],[98.916355,18.750391],[98.916846,18.750427],[98.917347,18.750584],[98.916916,18.7513],[98.917381,18.751752],[98.91797,18.752049],[98.918386,18.751258],[98.918824,18.751517],[98.918601,18.75184],[98.919303,18.752679],[98.919534,18.752608],[98.919643,18.752788],[98.919663,18.753215],[98.919455,18.753596],[98.91947,18.75387],[98.9196,18.754038],[98.92004,18.754018],[98.919814,18.753733],[98.920158,18.753327],[98.920132,18.753189],[98.920244,18.753063],[98.92078,18.753287],[98.921359,18.753337],[98.922486,18.753875],[98.921842,18.753865],[98.921735,18.754231],[98.922384,18.754348],[98.922462,18.75466],[98.9224,18.754932],[98.921638,18.755145],[98.921418,18.754853],[98.921145,18.7548],[98.92093,18.754881],[98.921241,18.755018],[98.920834,18.755257],[98.921316,18.755795],[98.922309,18.755617],[98.922893,18.755877],[98.922432,18.756618],[98.922277,18.756601],[98.922124,18.756908],[98.92196,18.756844],[98.921542,18.756878],[98.92181,18.757116],[98.921574,18.757249],[98.921434,18.757533],[98.921633,18.757967],[98.921577,18.758361],[98.921816,18.758333],[98.921906,18.758417],[98.921827,18.75861],[98.921917,18.758874],[98.921874,18.759138],[98.922046,18.759168],[98.922154,18.758473],[98.922044,18.758112],[98.921797,18.757955],[98.922097,18.757774],[98.922307,18.759103],[98.922197,18.759476],[98.921617,18.759948],[98.921166,18.760723],[98.920447,18.761129],[98.920126,18.761678],[98.919931,18.761284],[98.919544,18.761021],[98.919356,18.761147],[98.919434,18.761352],[98.919062,18.761645],[98.919047,18.76186],[98.919434,18.761936],[98.919492,18.762199],[98.919415,18.762389],[98.918659,18.762468],[98.917812,18.762294],[98.917709,18.762388],[98.917137,18.762273],[98.917599,18.76244],[98.917706,18.762612],[98.917728,18.762724],[98.917546,18.762917],[98.91768,18.763186],[98.918281,18.763138],[98.918332,18.762757],[98.919231,18.762833],[98.919772,18.762743],[98.919925,18.76264],[98.9204,18.761426],[98.920794,18.761053],[98.921188,18.76083],[98.922042,18.760667],[98.922498,18.760692],[98.92343,18.760946],[98.923382,18.760583],[98.923101,18.760398],[98.923017,18.76023],[98.923058,18.759974],[98.924206,18.759123],[98.924584,18.759029],[98.924973,18.759113],[98.925016,18.759227],[98.92478,18.759715],[98.925223,18.760027],[98.92663,18.759317],[98.927475,18.762615],[98.926638,18.76374],[98.926381,18.763986],[98.926268,18.763971],[98.924337,18.766237],[98.925206,18.766945],[98.926359,18.766874],[98.927011,18.766935],[98.927491,18.767331],[98.926947,18.767948],[98.926992,18.767989],[98.927121,18.768014],[98.927438,18.767862],[98.927545,18.767793],[98.927609,18.767501],[98.927919,18.767429],[98.927903,18.767734],[98.92749,18.768176],[98.927365,18.76848],[98.926921,18.768683],[98.926876,18.768831],[98.927002,18.768953],[98.927404,18.768873],[98.927969,18.768553],[98.928237,18.768558],[98.92828,18.768289],[98.928766,18.767666],[98.928649,18.767458],[98.928718,18.76743],[98.928601,18.767326],[98.92772,18.767287],[98.927802,18.767001],[98.927579,18.767232],[98.927207,18.76694],[98.927447,18.766752],[98.92762,18.766727],[98.927971,18.766305],[98.928161,18.7666],[98.92829,18.766452],[98.928462,18.766447],[98.928312,18.766798],[98.928135,18.766706],[98.928001,18.767184],[98.928467,18.767214],[98.928843,18.766655],[98.928939,18.766798],[98.928714,18.767163],[98.928945,18.76726],[98.929342,18.766894],[98.928971,18.767364],[98.928901,18.767671],[98.928304,18.768795],[98.928425,18.768921],[98.928399,18.769043],[98.928514,18.769067],[98.928521,18.768948],[98.92867,18.768983],[98.928659,18.769165],[98.928746,18.769247],[98.928835,18.769212],[98.928623,18.769883],[98.928849,18.769942],[98.929109,18.769482],[98.929302,18.769443],[98.92946,18.769101],[98.93005,18.769256],[98.930296,18.769124],[98.930946,18.769094],[98.931305,18.768977],[98.932657,18.769237],[98.932858,18.768676],[98.932813,18.768487],[98.932618,18.768306],[98.932962,18.767534],[98.933904,18.767463],[98.934079,18.767974],[98.93402,18.76824],[98.933869,18.768301],[98.933976,18.768342],[98.933921,18.768525],[98.934161,18.76857],[98.93413,18.768804],[98.93443,18.768931],[98.934175,18.769335],[98.9342,18.769504],[98.938895,18.770704],[98.938781,18.771415],[98.938851,18.771554],[98.939862,18.771224],[98.940224,18.771521],[98.939636,18.771722],[98.939685,18.771867],[98.939993,18.77191],[98.93999,18.77204],[98.939339,18.77258],[98.939703,18.773274],[98.939926,18.773208],[98.940106,18.773418],[98.940693,18.773751],[98.940436,18.774229],[98.940369,18.774701],[98.941096,18.775227],[98.941348,18.775712],[98.941584,18.775384],[98.942005,18.775188],[98.942359,18.774866],[98.942565,18.774135],[98.9423,18.773429],[98.941712,18.773038],[98.941474,18.773104],[98.94142,18.772954],[98.94201,18.772151],[98.941458,18.771613],[98.941981,18.771397],[98.942662,18.771367],[98.942804,18.77157],[98.942938,18.77221],[98.942694,18.772426],[98.942643,18.77288],[98.942895,18.773022],[98.943153,18.772387],[98.943606,18.77272],[98.943341,18.773116],[98.943316,18.773401],[98.943542,18.773609],[98.943662,18.773596],[98.94388,18.773766],[98.944156,18.773644],[98.944523,18.774112],[98.944885,18.77386],[98.945411,18.774396],[98.944687,18.774523],[98.944108,18.774797],[98.944223,18.775222],[98.94433,18.775331],[98.945001,18.775041],[98.945202,18.775219],[98.945811,18.774846],[98.946004,18.774993],[98.946138,18.775722],[98.945945,18.775801],[98.945878,18.775714],[98.945577,18.77577],[98.945382,18.77563],[98.945012,18.775729],[98.944939,18.775828],[98.944971,18.775971],[98.945127,18.775981],[98.945545,18.776748],[98.945111,18.776959],[98.945242,18.777436],[98.945553,18.777959],[98.945661,18.778053],[98.946444,18.777901],[98.94631,18.777664],[98.94646,18.777532],[98.947074,18.777652],[98.947259,18.777718],[98.947278,18.777819],[98.946854,18.777936],[98.946881,18.7782],[98.947061,18.778536],[98.947772,18.779335],[98.948855,18.779043],[98.949078,18.779554],[98.94879,18.780191],[98.949091,18.780765],[98.949164,18.781509],[98.948928,18.78141],[98.948751,18.780841],[98.948359,18.780539],[98.948187,18.780724],[98.948163,18.78092],[98.948276,18.781072],[98.94841,18.781154],[98.948482,18.781077],[98.948638,18.781248],[98.94867,18.781659],[98.948198,18.781849],[98.94837,18.781344],[98.948249,18.781342],[98.947761,18.781571],[98.94764,18.781522],[98.947474,18.781681],[98.948313,18.782096],[98.948732,18.781824],[98.949429,18.781618],[98.950937,18.780737],[98.951261,18.781288],[98.951406,18.781166],[98.951355,18.780961],[98.951891,18.780775],[98.952066,18.780112],[98.952414,18.780135],[98.952806,18.780537],[98.952626,18.780689],[98.952819,18.780938],[98.9526,18.781151],[98.952696,18.781314],[98.953106,18.781314],[98.953155,18.781763],[98.95338,18.781794],[98.953442,18.78237],[98.953109,18.782642],[98.952986,18.783007],[98.953369,18.783091],[98.953455,18.78268],[98.953769,18.782718],[98.954018,18.78347],[98.953769,18.78369],[98.953452,18.783716],[98.953552,18.783835],[98.952353,18.784511],[98.951993,18.785316],[98.951693,18.785664],[98.950947,18.785829],[98.950137,18.785867],[98.950159,18.786207],[98.949769,18.787526],[98.949242,18.787537],[98.94889,18.787845],[98.948826,18.788043],[98.948834,18.788251],[98.948957,18.788414],[98.949089,18.788467],[98.949354,18.78833],[98.950161,18.788594],[98.949697,18.788919],[98.949644,18.789244],[98.94938,18.789541],[98.94918,18.78998],[98.948582,18.789729],[98.948354,18.789798],[98.948002,18.790539],[98.845781,18.788442],[98.901075,18.728995],[98.900856,18.730339],[98.89979,18.730872],[98.900426,18.732105],[98.901731,18.733932],[98.901361,18.734323],[98.901259,18.734562],[98.901431,18.735476],[98.899773,18.736284],[98.899993,18.737671],[98.900087,18.737813],[98.90028,18.737884],[98.900763,18.737935],[98.900667,18.737755],[98.900771,18.737658],[98.901179,18.737475],[98.90167,18.737407],[98.902394,18.736917],[98.902458,18.736137],[98.902659,18.736081],[98.902831,18.736162],[98.903158,18.736155],[98.903569,18.735913],[98.903834,18.735923],[98.904038,18.736025],[98.90462,18.736879],[98.905033,18.736645],[98.905519,18.736564],[98.905524,18.736401],[98.905296,18.735941],[98.905344,18.735809],[98.905803,18.735781],[98.906294,18.736086],[98.906495,18.737973],[98.906455,18.738296],[98.906637,18.73886],[98.906758,18.738817],[98.906766,18.737973],[98.907045,18.737341],[98.907699,18.737473],[98.907259,18.735631],[98.907082,18.735494],[98.90701,18.73525],[98.907115,18.734951],[98.90756,18.734661],[98.907238,18.734298],[98.907469,18.733759],[98.907042,18.732799],[98.907059,18.732385],[98.907933,18.731071],[98.90802,18.730306],[98.908388,18.729532],[98.913876,18.729881],[98.915051,18.730249],[98.915564,18.729317],[98.917412,18.729875],[98.917186,18.730226],[98.916233,18.731006],[98.916738,18.731638],[98.916623,18.731745],[98.915615,18.731901],[98.915526,18.732281],[98.916186,18.732935],[98.915648,18.733148],[98.915455,18.733101],[98.915295,18.733206],[98.915392,18.733386],[98.91509,18.73332],[98.915098,18.733],[98.914653,18.732901],[98.914288,18.73324],[98.914861,18.733876],[98.914802,18.73409],[98.91496,18.73425],[98.915317,18.733947],[98.915019,18.733673],[98.915159,18.733513],[98.915609,18.733449],[98.915859,18.73332],[98.91602,18.733475],[98.916298,18.734084],[98.917017,18.734087],[98.91743,18.734191],[98.917696,18.734422],[98.917666,18.734745],[98.916339,18.735654],[98.915934,18.735487],[98.915561,18.736056],[98.91499,18.735723],[98.914711,18.736086],[98.913941,18.737694],[98.912801,18.739232],[98.913035,18.742981],[98.914106,18.74618],[98.914695,18.746622],[98.915132,18.746602]],[[98.913823,18.732534],[98.914484,18.732252],[98.914527,18.73182],[98.914284,18.731585],[98.913561,18.731521],[98.913646,18.732483],[98.913823,18.732534]],[[98.924694,18.767562],[98.924817,18.767531],[98.924919,18.767114],[98.924409,18.766717],[98.924029,18.766845],[98.923943,18.766957],[98.924694,18.767562]],[[98.924009,18.768351],[98.923908,18.768763],[98.924021,18.768865],[98.924321,18.76883],[98.924648,18.76857],[98.924503,18.767682],[98.923538,18.76696],[98.923385,18.767157],[98.923203,18.767171],[98.923227,18.767421],[98.923432,18.767739],[98.923991,18.768093],[98.923937,18.768285],[98.924009,18.768351]],[[98.921534,18.789795],[98.92162,18.789178],[98.921427,18.789104],[98.921121,18.789211],[98.921094,18.789726],[98.921534,18.789795]],[[98.946673,18.781347],[98.946763,18.781352],[98.946326,18.781102],[98.947027,18.780895],[98.947185,18.780943],[98.947235,18.780666],[98.947145,18.78057],[98.946477,18.780716],[98.94619,18.780976],[98.946184,18.781085],[98.945223,18.781363],[98.945333,18.781438],[98.946112,18.781156],[98.946673,18.781347]],[[98.951197,18.781538],[98.950898,18.780955],[98.950757,18.78092],[98.950574,18.781038],[98.950716,18.781407],[98.950836,18.781399],[98.951137,18.781706],[98.950955,18.782134],[98.950456,18.782368],[98.950276,18.782553],[98.950542,18.78286],[98.950761,18.782837],[98.950976,18.782593],[98.951663,18.782238],[98.952217,18.782196],[98.952326,18.782316],[98.952528,18.78222],[98.952513,18.781993],[98.952296,18.78173],[98.951448,18.781791],[98.951197,18.781538]],[[98.926413,18.769619],[98.925573,18.76934],[98.925377,18.769459],[98.925479,18.770033],[98.92535,18.770445],[98.92564,18.77082],[98.925871,18.77077],[98.926241,18.770333],[98.926708,18.770297],[98.926681,18.769967],[98.926413,18.769619]],[[98.917739,18.760092],[98.91808,18.76017],[98.918651,18.759741],[98.918838,18.759732],[98.919206,18.759503],[98.919259,18.759396],[98.919063,18.759118],[98.918506,18.759376],[98.918469,18.759737],[98.918247,18.759773],[98.917674,18.759565],[98.917434,18.759044],[98.917391,18.758623],[98.917094,18.758532],[98.917032,18.758582],[98.917221,18.758995],[98.917313,18.75953],[98.916922,18.759714],[98.916974,18.759847],[98.917739,18.760092]],[[98.909332,18.758641],[98.908881,18.758905],[98.908565,18.758764],[98.908023,18.759352],[98.907186,18.759515],[98.905881,18.758945],[98.904612,18.759485],[98.903672,18.758596],[98.905461,18.756733],[98.906434,18.755966],[98.905326,18.755739],[98.903964,18.755803],[98.903163,18.75508],[98.902025,18.754648],[98.901097,18.754099],[98.901314,18.753769],[98.900763,18.753362],[98.900502,18.75351],[98.899955,18.75337],[98.899293,18.756831],[98.901741,18.758355],[98.902489,18.759007],[98.901409,18.759445],[98.902214,18.760643],[98.905496,18.762432],[98.90566,18.762848],[98.906252,18.762856],[98.907513,18.762669],[98.908264,18.763514],[98.908592,18.764081],[98.90936,18.764492],[98.91,18.764622],[98.911016,18.764081],[98.909465,18.763349],[98.909497,18.762502],[98.908851,18.762467],[98.908184,18.762607],[98.907829,18.762129],[98.908767,18.761612],[98.909298,18.761457],[98.909694,18.761092],[98.909698,18.760702],[98.909879,18.760444],[98.909908,18.75962],[98.910333,18.759179],[98.910212,18.758479],[98.910817,18.758045],[98.910425,18.75778],[98.909895,18.757992],[98.909461,18.758336],[98.909332,18.758641]],[[98.90752,18.735263],[98.907863,18.735644],[98.908126,18.735517],[98.90804,18.735354],[98.907836,18.735329],[98.907686,18.735085],[98.90752,18.735263]]]}},{"type":"Feature","properties":{"k":"rural"},"geometry":{"type":"Polygon","coordinates":[[[98.957656,18.776685],[98.958441,18.776506],[98.958435,18.776319],[98.960261,18.776295],[98.960692,18.776397],[98.960861,18.776764],[98.960735,18.777059],[98.959793,18.777272],[98.958525,18.777393],[98.958015,18.777581],[98.958129,18.777305],[98.958353,18.777116],[98.958413,18.77687],[98.957656,18.776685]],[[98.958492,18.777205],[98.959667,18.777159],[98.960558,18.776885],[98.960568,18.77656],[98.960477,18.776484],[98.958508,18.776479],[98.958578,18.776809],[98.958492,18.777205]]]}},{"type":"Feature","properties":{"k":"forest"},"geometry":{"type":"Polygon","coordinates":[[[98.978224,18.782478],[98.978369,18.782521],[98.978464,18.782291],[98.97854,18.782319],[98.978479,18.782784],[98.978196,18.78272],[98.978224,18.782478]]]}},{"type":"Feature","properties":{"k":"forest"},"geometry":{"type":"Polygon","coordinates":[[[99.010302,18.756999],[99.01229,18.757609],[99.012876,18.756548],[99.013675,18.756857],[99.013813,18.757083],[99.013531,18.75734],[99.013193,18.758922],[99.00961,18.758383],[99.009829,18.757005],[99.010302,18.756999]]]}},{"type":"Feature","properties":{"k":"rural"},"geometry":{"type":"Polygon","coordinates":[[[99.041887,18.751402],[99.043234,18.75162],[99.043958,18.751824],[99.043395,18.752362],[99.042992,18.752042],[99.042686,18.752001],[99.042016,18.752453],[99.041968,18.752961],[99.042048,18.75318],[99.042305,18.753349],[99.041398,18.754138],[99.041067,18.754048],[99.041096,18.753554],[99.041339,18.753332],[99.041426,18.753103],[99.041496,18.752144],[99.041887,18.751402]],[[99.041238,18.754032],[99.041445,18.754007],[99.041617,18.753856],[99.041592,18.7537],[99.041345,18.753554],[99.041225,18.753653],[99.041238,18.754032]]]}},{"type":"Feature","properties":{"k":"forest"},"geometry":{"type":"Polygon","coordinates":[[[98.987227,18.733886],[98.985615,18.733909],[98.98543,18.731179],[98.98566,18.731191],[98.985693,18.730894],[98.986234,18.730884],[98.986462,18.730086],[98.986631,18.729837],[98.987248,18.729969],[98.987034,18.73016],[98.986843,18.730902],[98.987433,18.731115],[98.987594,18.730836],[98.987863,18.730907],[98.987769,18.731308],[98.987916,18.732264],[98.988014,18.732362],[98.98819,18.732333],[98.988805,18.733082],[98.988927,18.733358],[98.988313,18.733526],[98.988042,18.733071],[98.987854,18.733081],[98.987508,18.733239],[98.987546,18.733729],[98.987227,18.733886]],[[98.986771,18.731938],[98.986841,18.73176],[98.987337,18.731882],[98.987441,18.731552],[98.98713,18.7313],[98.986985,18.731303],[98.986637,18.731875],[98.986639,18.731969],[98.986771,18.731938]],[[98.986751,18.732629],[98.986931,18.73264],[98.986983,18.73221],[98.986763,18.73221],[98.986751,18.732629]],[[98.986505,18.732703],[98.986634,18.732634],[98.986677,18.732378],[98.986511,18.731852],[98.986347,18.731735],[98.985907,18.731659],[98.985829,18.731786],[98.985937,18.731918],[98.985854,18.732431],[98.985915,18.732581],[98.986039,18.7327],[98.986505,18.732703]],[[98.986908,18.732835],[98.986605,18.732785],[98.986597,18.733308],[98.986915,18.733312],[98.986908,18.732835]],[[98.985789,18.733293],[98.986455,18.733306],[98.986472,18.73289],[98.985792,18.732888],[98.985789,18.733293]],[[98.985891,18.733791],[98.986288,18.733705],[98.986322,18.733542],[98.985892,18.733443],[98.985891,18.733791]],[[98.986633,18.733791],[98.986972,18.733804],[98.986967,18.733444],[98.986626,18.733436],[98.986633,18.733791]]]}},{"type":"Feature","properties":{"k":"forest"},"geometry":{"type":"Polygon","coordinates":[[[99.004044,18.744662],[99.004818,18.744274],[99.00518,18.744995],[99.005423,18.744904],[99.005453,18.745004],[99.005546,18.744968],[99.005748,18.745588],[99.005341,18.74575],[99.005272,18.745582],[99.004676,18.745786],[99.004044,18.744662]],[[99.004699,18.745146],[99.004983,18.744872],[99.004637,18.74457],[99.0045,18.74462],[99.004425,18.744499],[99.004216,18.744605],[99.004358,18.74488],[99.004699,18.745146]]]}},{"type":"Feature","properties":{"k":"park"},"geometry":{"type":"Polygon","coordinates":[[[99.011151,18.780208],[99.010139,18.780083],[99.010289,18.778504],[99.011313,18.778519],[99.011151,18.780208]],[[99.011005,18.779714],[99.011062,18.778815],[99.010884,18.778618],[99.010608,18.7786],[99.010378,18.778824],[99.010311,18.779793],[99.010495,18.779985],[99.010716,18.780011],[99.010912,18.779908],[99.011005,18.779714]]]}},{"type":"Feature","properties":{"k":"forest"},"geometry":{"type":"Polygon","coordinates":[[[99.018341,18.812038],[99.018424,18.810966],[99.018248,18.810853],[99.0184,18.810126],[99.018503,18.809977],[99.018625,18.810029],[99.019358,18.809275],[99.019974,18.809341],[99.020355,18.809544],[99.020563,18.809555],[99.021717,18.809042],[99.022626,18.809007],[99.022898,18.808787],[99.023186,18.808897],[99.023291,18.809139],[99.023167,18.809544],[99.022275,18.809524],[99.02124,18.809631],[99.020789,18.809758],[99.020635,18.810084],[99.019333,18.809702],[99.01903,18.809964],[99.018737,18.810459],[99.018935,18.811268],[99.018694,18.81236],[99.019663,18.812825],[99.019322,18.812883],[99.019384,18.81333],[99.019014,18.813591],[99.019121,18.813865],[99.018,18.81352],[99.017743,18.813246],[99.018047,18.812821],[99.018388,18.812543],[99.018468,18.812233],[99.017891,18.812066],[99.017932,18.811917],[99.018341,18.812038]]]}}]}